{
  "type": "FeatureCollection",
  "features": [
    {
      "type": "Feature",
      "geometry": {
        "type": "Point",
        "coordinates": [
          55.512,
          -20.912
        ]
      },
      "properties": {
        "id": "RE_PYL_001",
        "territoryCode": "RE",
        "type": "htb_pylon",
        "name": "Pylone HTB Test Sainte-Marie",
        "sourceDatasetId": "pylones_htb_reunion",
        "coordinates": [
          55.512,
          -20.912
        ],
        "rawProperties": {
          "id": "RE_PYL_001",
          "nom": "Pylone HTB Test Sainte-Marie",
          "commune": "Sainte-Marie",
          "code_commune": "97418",
          "territoire": "RE",
          "operateur": "EDF SEI"
        }
      }
    }
  ]
}
